OBJECT_NAME,OBJECT_ID,EPOCH,MEAN_MOTION,ECCENTRICITY,INCLINATION,RA_OF_ASC_NODE,ARG_OF_PERICENTER,MEAN_ANOMALY,EPHEMERIS_TYPE,CLASSIFICATION_TYPE,NORAD_CAT_ID,ELEMENT_SET_NO,REV_AT_EPOCH,BSTAR,MEAN_MOTION_DOT,MEAN_MOTION_DDOT
ELEKTRO-L 3,2019-095A,2026-06-16T04:42:21.705984,1.00271388,.0000909,0.2541,81.4967,352.3882,337.1292,0,U,44903,999,2369,0,-.97E-6,0
GONETS-M 14,2019-096A,2026-06-16T03:54:17.948736,12.42869586,.0013476,82.5242,85.2761,150.0868,210.0985,0,U,44905,999,29355,.63564E-5,.11E-6,0
GONETS-M 15,2019-096B,2026-06-16T04:36:38.198592,12.42871123,.0014837,82.5263,85.7192,173.5477,186.5796,0,U,44906,999,29352,-.20111E-3,-.18E-6,0
GONETS-M 16,2019-096C,2026-06-16T05:14:24.653760,12.42891300,.0009777,82.5208,84.6558,216.9238,143.1169,0,U,44907,999,29351,-.26915E-3,-.27E-6,0
RS-44 & BREEZE-KM R/B,2019-096E,2026-06-15T23:43:55.351776,12.79748869,.0218114,82.5218,340.5014,146.9585,214.5365,0,U,44909,999,30219,-.34612E-5,.12E-6,0
JILIN-1 KUANFU 01,2020-003A,2026-06-16T03:49:44.192928,15.10718901,.0008437,97.5031,241.1348,311.6207,48.4299,0,U,45016,999,35517,.172E-3,.2788E-4,0
XINGYUN-2 01,2020-028A,2026-06-16T05:10:09.543072,15.11803251,.0008186,97.4858,159.6347,196.0877,164.0094,0,U,45602,999,33469,.97728E-4,.1606E-4,0
XINGYUN-2 02,2020-028B,2026-06-16T04:39:07.039008,15.11535486,.000905,97.5064,173.2023,277.6773,82.3429,0,U,45603,999,33468,.10579E-3,.173E-4,0
HAIYANG-1D,2020-036A,2026-06-16T03:15:42.060672,14.34173603,.0003329,98.4559,108.8389,130.0430,230.1047,0,U,45721,999,31482,.11538E-3,.28E-5,0
M2 PATHFINDER,2020-037E,2026-06-15T23:35:18.044736,15.04672820,.0012432,97.8148,358.2013,149.6775,210.5173,0,U,45727,999,32531,.12259E-3,.1662E-4,0
GAOFEN DUOMO (GFDM),2020-042A,2026-06-16T04:35:16.215360,14.76878755,.0012455,97.7750,227.1133,77.5753,282.6851,0,U,45856,999,32086,.88764E-4,.575E-5,0
ZIYUAN 3-03 (ZY 3-03),2020-051A,2026-06-16T04:44:24.726624,15.21526766,.000328,97.2838,234.9561,324.7776,35.3243,0,U,45939,999,32719,.20954E-3,.4651E-4,0
NEMO-HD,2020-061F,2026-06-16T03:47:30.306624,15.44577077,.0002321,97.1920,229.1212,82.1599,277.9913,0,U,46277,999,32182,.21036E-3,.9691E-4,0
NAPA-1,2020-061BA,2026-06-16T04:55:44.919264,15.67876030,.0001439,97.2468,241.3522,172.7365,187.3917,0,U,46320,999,32158,.51954E-3,.57327E-3,0
JILIN-1 GAOFEN 3E,2020-065D,2026-06-16T04:45:07.549920,15.63529044,.0012849,97.2246,219.7838,160.4044,199.7712,0,U,46457,999,31960,.58264E-3,.54281E-3,0
JILIN-1 GAOFEN 3F,2020-065E,2026-06-16T03:46:16.706784,15.60812835,.0014349,97.2199,217.0827,149.3684,210.8415,0,U,46458,999,31954,.54375E-3,.45588E-3,0
JILIN-1 GAOFEN 3G,2020-065F,2026-06-16T04:37:08.848128,15.71066438,.000847,97.2269,223.9057,68.2838,291.9326,0,U,46459,999,31978,.68371E-3,.86519E-3,0
JILIN-1 GAOFEN 3H,2020-065G,2026-06-16T03:53:06.819072,15.67652727,.0003564,97.2210,220.2083,356.3263,3.7971,0,U,46460,999,31972,.59591E-3,.65257E-3,0
HAIYANG-2C,2020-066A,2026-06-16T05:25:22.333152,13.83375842,.0008953,65.9966,217.6777,238.0839,121.9359,0,U,46469,999,28936,.15367E-3,.88E-6,0
HJ-2A,2020-067A,2026-06-16T05:11:40.900704,14.76514222,.0002338,97.8834,245.6115,272.9119,87.1824,0,U,46478,999,30811,.32781E-4,.179E-5,0
HJ-2B,2020-067B,2026-06-16T04:27:15.141888,14.76557764,.0001251,97.8898,246.6021,100.0434,260.0917,0,U,46479,999,30811,.11836E-3,.776E-5,0
GONETS-M 17,2020-068A,2026-06-16T03:54:39.069216,12.42873238,.0023148,82.4982,348.1400,39.6242,320.6524,0,U,46486,999,25903,.13894E-3,.29E-6,0
GONETS-M 18,2020-068B,2026-06-16T04:58:14.001600,12.42873695,.0020375,82.4936,347.2308,36.2718,323.9739,0,U,46487,999,25902,.44338E-3,.71E-6,0
GONETS-M 19,2020-068C,2026-06-16T04:22:51.246048,12.42892046,.0014297,82.4961,347.6963,51.6405,308.5957,0,U,46488,999,25912,-.31888E-3,-.34E-6,0
DEKART,2020-068H,2026-06-16T03:58:08.152896,15.37331533,.0007015,97.8734,176.3621,291.0347,69.0146,0,U,46493,999,31561,.29784E-3,.10816E-3,0
NORBI,2020-068J,2026-06-16T04:30:16.338240,15.48418700,.0004725,97.8617,183.0643,250.1380,109.9360,0,U,46494,999,31605,.35101E-3,.18536E-3,0
SALSAT,2020-068K,2026-06-15T23:14:07.134432,15.29785415,.0008114,97.8844,169.9584,313.3675,46.6887,0,U,46495,999,31517,.23912E-3,.682E-4,0
ICEYE-X6,2020-068M,2026-06-16T03:03:12.557088,15.04519385,.000865,98.0974,160.7476,93.6029,266.6185,0,U,46497,999,31307,.22869E-3,.3138E-4,0
