ELEKTRO-L 3             
1 44903U 19095A   26167.19608456 -.00000097  00000+0  00000+0 0  9990
2 44903   0.2541  81.4967 0000909 352.3882 337.1292  1.00271388 23695
GONETS-M 14             
1 44905U 19096A   26167.16270774  .00000011  00000+0  63564-5 0  9993
2 44905  82.5242  85.2761 0013476 150.0868 210.0985 12.42869586293555
GONETS-M 15             
1 44906U 19096B   26167.19210878 -.00000018  00000+0 -20111-3 0  9994
2 44906  82.5263  85.7192 0014837 173.5477 186.5796 12.42871123293524
GONETS-M 16             
1 44907U 19096C   26167.21834090 -.00000027  00000+0 -26915-3 0  9994
2 44907  82.5208  84.6558 0009777 216.9238 143.1169 12.42891300293513
RS-44 & BREEZE-KM R/B   
1 44909U 19096E   26166.98883509  .00000012  00000+0 -34612-5 0  9996
2 44909  82.5218 340.5014 0218114 146.9585 214.5365 12.79748869302198
JILIN-1 KUANFU 01       
1 45016U 20003A   26167.15953927  .00002788  00000+0  17200-3 0  9991
2 45016  97.5031 241.1348 0008437 311.6207  48.4299 15.10718901355178
XINGYUN-2 01            
1 45602U 20028A   26167.21538823  .00001606  00000+0  97728-4 0  9992
2 45602  97.4858 159.6347 0008186 196.0877 164.0094 15.11803251334692
XINGYUN-2 02            
1 45603U 20028B   26167.19383147  .00001730  00000+0  10579-3 0  9993
2 45603  97.5064 173.2023 0009050 277.6773  82.3429 15.11535486334683
HAIYANG-1D              
1 45721U 20036A   26167.13590348  .00000280  00000+0  11538-3 0  9995
2 45721  98.4559 108.8389 0003329 130.0430 230.1047 14.34173603314823
M2 PATHFINDER           
1 45727U 20037E   26166.98284774  .00001662  00000+0  12259-3 0  9993
2 45727  97.8148 358.2013 0012432 149.6775 210.5173 15.04672820325315
GAOFEN DUOMO (GFDM)     
1 45856U 20042A   26167.19115990  .00000575  00000+0  88764-4 0  9996
2 45856  97.7750 227.1133 0012455  77.5753 282.6851 14.76878755320864
ZIYUAN 3-03 (ZY 3-03)   
1 45939U 20051A   26167.19750841  .00004651  00000+0  20954-3 0  9993
2 45939  97.2838 234.9561 0003280 324.7776  35.3243 15.21526766327191
NEMO-HD                 
1 46277U 20061F   26167.15798966  .00009691  00000+0  21036-3 0  9997
2 46277  97.1920 229.1212 0002321  82.1599 277.9913 15.44577077321828
NAPA-1                  
1 46320U 20061BA  26167.20538101  .00057327  00000+0  51954-3 0  9996
2 46320  97.2468 241.3522 0001439 172.7365 187.3917 15.67876030321588
JILIN-1 GAOFEN 3E       
1 46457U 20065D   26167.19800405  .00054281  00000+0  58264-3 0  9995
2 46457  97.2246 219.7838 0012849 160.4044 199.7712 15.63529044319603
JILIN-1 GAOFEN 3F       
1 46458U 20065E   26167.15713781  .00045588  00000+0  54375-3 0  9991
2 46458  97.2199 217.0827 0014349 149.3684 210.8415 15.60812835319541
JILIN-1 GAOFEN 3G       
1 46459U 20065F   26167.19246352  .00086519  00000+0  68371-3 0  9991
2 46459  97.2269 223.9057 0008470  68.2838 291.9326 15.71066438319788
JILIN-1 GAOFEN 3H       
1 46460U 20065G   26167.16188448  .00065257  00000+0  59591-3 0  9991
2 46460  97.2210 220.2083 0003564 356.3263   3.7971 15.67652727319723
HAIYANG-2C              
1 46469U 20066A   26167.22595293  .00000088  00000+0  15367-3 0  9992
2 46469  65.9966 217.6777 0008953 238.0839 121.9359 13.83375842289369
HJ-2A                   
1 46478U 20067A   26167.21644561  .00000179  00000+0  32781-4 0  9996
2 46478  97.8834 245.6115 0002338 272.9119  87.1824 14.76514222308118
HJ-2B                   
1 46479U 20067B   26167.18559192  .00000776  00000+0  11836-3 0  9998
2 46479  97.8898 246.6021 0001251 100.0434 260.0917 14.76557764308113
GONETS-M 17             
1 46486U 20068A   26167.16295219  .00000029  00000+0  13894-3 0  9999
2 46486  82.4982 348.1400 0023148  39.6242 320.6524 12.42873238259038
GONETS-M 18             
1 46487U 20068B   26167.20710650  .00000071  00000+0  44338-3 0  9990
2 46487  82.4936 347.2308 0020375  36.2718 323.9739 12.42873695259025
GONETS-M 19             
1 46488U 20068C   26167.18253757 -.00000034  00000+0 -31888-3 0  9995
2 46488  82.4961 347.6963 0014297  51.6405 308.5957 12.42892046259128
DEKART                  
1 46493U 20068H   26167.16537214  .00010816  00000+0  29784-3 0  9991
2 46493  97.8734 176.3621 0007015 291.0347  69.0146 15.37331533315617
NORBI                   
1 46494U 20068J   26167.18768910  .00018536  00000+0  35101-3 0  9990
2 46494  97.8617 183.0643 0004725 250.1380 109.9360 15.48418700316050
SALSAT                  
1 46495U 20068K   26166.96813813  .00006820  00000+0  23912-3 0  9999
2 46495  97.8844 169.9584 0008114 313.3675  46.6887 15.29785415315177
ICEYE-X6                
1 46497U 20068M   26167.12722867  .00003138  00000+0  22869-3 0  9997
2 46497  98.0974 160.7476 0008650  93.6029 266.6185 15.04519385313077
